start=new Date('2022-03-25T00:00:00.000Z').valueOf();
sats=[{"OBJECT_NAME":"STARLINK-3558","MEAN_MOTION_DOT":"-0.00874552","RCS_SIZE":null,"CENTER_NAME":"EARTH","SEMIMAJOR_AXIS":"6708.592","PERIAPSIS":"329.717","OBJECT_TYPE":"PAYLOAD","ECCENTRICITY":"0.00011020","PERIOD":"91.140","RA_OF_ASC_NODE":"115.8329","CLASSIFICATION_TYPE":"U","LAUNCH_DATE":"2022-03-19","COUNTRY_CODE":"US","EPHEMERIS_TYPE":"0","ARG_OF_PERICENTER":"67.8869","INCLINATION":"53.2174","MEAN_MOTION":"15.79995003","SITE":"AFETR","APOAPSIS":"331.196","MEAN_ANOMALY":"205.8907","NORAD_CAT_ID":"52119","DECAY_DATE":null,"TIME_SYSTEM":"UTC","BSTAR":"-0.00509960000000","MEAN_ELEMENT_THEORY":"SGP4","OBJECT_ID":"2022-029AH","REF_FRAME":"TEME","FILE":"3373054","GP_ID":"199624261","REV_AT_EPOCH":"167","MEAN_MOTION_DDOT":"0.0000000000000","EPOCH":"2022-03-24T22:00:00.999936","TLE_LINE2":"2 52119  53.2174 115.8329 0001102  67.8869 205.8907 15.79995003  1672","TLE_LINE1":"1 52119U 22029AH  22083.91667824 -.00874552  00000-0 -50996-2 0  9995","ELEMENT_SET_NO":"999"},{"ARG_OF_PERICENTER":"60.9223","MEAN_MOTION":"15.79937909","INCLINATION":"53.2174","LAUNCH_DATE":"2022-03-19","EPHEMERIS_TYPE":"0","COUNTRY_CODE":"US","CLASSIFICATION_TYPE":"U","OBJECT_TYPE":"PAYLOAD","PERIAPSIS":"329.848","ECCENTRICITY":"0.00011490","PERIOD":"91.143","RA_OF_ASC_NODE":"115.8353","CENTER_NAME":"EARTH","SEMIMAJOR_AXIS":"6708.753","RCS_SIZE":null,"MEAN_MOTION_DOT":"-0.00874592","OBJECT_NAME":"STARLINK-3534","ELEMENT_SET_NO":"999","EPOCH":"2022-03-24T22:00:00.999936","TLE_LINE1":"1 52120U 22029AJ  22083.91667824 -.00874592  00000-0 -51132-2 0  9994","TLE_LINE2":"2 52120  53.2174 115.8353 0001149  60.9223 211.8731 15.79937909  1639","REV_AT_EPOCH":"163","MEAN_MOTION_DDOT":"0.0000000000000","FILE":"3373054","GP_ID":"199624151","MEAN_ELEMENT_THEORY":"SGP4","OBJECT_ID":"2022-029AJ","BSTAR":"-0.00511320000000","REF_FRAME":"TEME","TIME_SYSTEM":"UTC","DECAY_DATE":null,"MEAN_ANOMALY":"211.8731","NORAD_CAT_ID":"52120","APOAPSIS":"331.389","SITE":"AFETR"},{"CLASSIFICATION_TYPE":"U","RA_OF_ASC_NODE":"115.4149","PERIOD":"91.146","OBJECT_TYPE":"PAYLOAD","PERIAPSIS":"330.102","ECCENTRICITY":"0.00010020","INCLINATION":"53.2173","MEAN_MOTION":"15.79883029","ARG_OF_PERICENTER":"63.5760","EPHEMERIS_TYPE":"0","COUNTRY_CODE":"US","LAUNCH_DATE":"2022-03-19","RCS_SIZE":null,"MEAN_MOTION_DOT":"-0.00876235","OBJECT_NAME":"STARLINK-3678","SEMIMAJOR_AXIS":"6708.909","CENTER_NAME":"EARTH","MEAN_MOTION_DDOT":"0.0000000000000","REV_AT_EPOCH":"216","GP_ID":"199598693","FILE":"3373042","ELEMENT_SET_NO":"999","TLE_LINE2":"2 52121  53.2173 115.4149 0001002  63.5760 325.0903 15.79883029  2162","TLE_LINE1":"1 52121U 22029AK  22084.00002315 -.00876235  00000-0 -51371-2 0  9995","EPOCH":"2022-03-25T00:00:02.000160","NORAD_CAT_ID":"52121","MEAN_ANOMALY":"325.0903","APOAPSIS":"331.446","SITE":"AFETR","REF_FRAME":"TEME","BSTAR":"-0.00513710000000","MEAN_ELEMENT_THEORY":"SGP4","OBJECT_ID":"2022-029AK","DECAY_DATE":null,"TIME_SYSTEM":"UTC"},{"CENTER_NAME":"EARTH","SEMIMAJOR_AXIS":"6708.648","OBJECT_NAME":"STARLINK-3726","RCS_SIZE":null,"MEAN_MOTION_DOT":"-0.00874623","LAUNCH_DATE":"2022-03-19","COUNTRY_CODE":"US","EPHEMERIS_TYPE":"0","ARG_OF_PERICENTER":"63.5083","MEAN_MOTION":"15.79975139","INCLINATION":"53.2174","OBJECT_TYPE":"PAYLOAD","PERIAPSIS":"329.763","ECCENTRICITY":"0.00011180","PERIOD":"91.141","RA_OF_ASC_NODE":"115.8338","CLASSIFICATION_TYPE":"U","TIME_SYSTEM":"UTC","DECAY_DATE":null,"MEAN_ELEMENT_THEORY":"SGP4","OBJECT_ID":"2022-029AL","BSTAR":"-0.00510470000000","REF_FRAME":"TEME","SITE":"AFETR","APOAPSIS":"331.263","MEAN_ANOMALY":"209.9540","NORAD_CAT_ID":"52122","EPOCH":"2022-03-24T22:00:00.999936","TLE_LINE1":"1 52122U 22029AL  22083.91667824 -.00874623  00000-0 -51047-2 0  9996","TLE_LINE2":"2 52122  53.2174 115.8338 0001118  63.5083 209.9540 15.79975139  1670","ELEMENT_SET_NO":"999","FILE":"3373054","GP_ID":"199624041","REV_AT_EPOCH":"167","MEAN_MOTION_DDOT":"0.0000000000000"},{"GP_ID":"199624372","FILE":"3373054","MEAN_MOTION_DDOT":"0.0000000000000","REV_AT_EPOCH":"167","TLE_LINE1":"1 52123U 22029AM  22083.91667824 -.00874769  00000-0 -50817-2 0  9992","TLE_LINE2":"2 52123  53.2174 115.8303 0001161  59.3882 215.6189 15.80076608  1679","EPOCH":"2022-03-24T22:00:00.999936","ELEMENT_SET_NO":"999","APOAPSIS":"331.005","SITE":"AFETR","NORAD_CAT_ID":"52123","MEAN_ANOMALY":"215.6189","TIME_SYSTEM":"UTC","DECAY_DATE":null,"REF_FRAME":"TEME","MEAN_ELEMENT_THEORY":"SGP4","OBJECT_ID":"2022-029AM","BSTAR":"-0.00508170000000","RA_OF_ASC_NODE":"115.8303","PERIOD":"91.135","PERIAPSIS":"329.447","OBJECT_TYPE":"PAYLOAD","ECCENTRICITY":"0.00011610","CLASSIFICATION_TYPE":"U","EPHEMERIS_TYPE":"0","COUNTRY_CODE":"US","LAUNCH_DATE":"2022-03-19","MEAN_MOTION":"15.80076608","INCLINATION":"53.2174","ARG_OF_PERICENTER":"59.3882","OBJECT_NAME":"STARLINK-3725","MEAN_MOTION_DOT":"-0.00874769","RCS_SIZE":null,"SEMIMAJOR_AXIS":"6708.361","CENTER_NAME":"EARTH"},{"PERIAPSIS":"330.115","OBJECT_TYPE":"PAYLOAD","ECCENTRICITY":"0.00010750","PERIOD":"91.147","RA_OF_ASC_NODE":"115.4158","CLASSIFICATION_TYPE":"U","LAUNCH_DATE":"2022-03-19","COUNTRY_CODE":"US","EPHEMERIS_TYPE":"0","ARG_OF_PERICENTER":"57.6304","MEAN_MOTION":"15.79860982","INCLINATION":"53.2173","OBJECT_NAME":"STARLINK-3684","MEAN_MOTION_DOT":"-0.00876256","RCS_SIZE":null,"CENTER_NAME":"EARTH","SEMIMAJOR_AXIS":"6708.971","FILE":"3373038","GP_ID":"199598881","REV_AT_EPOCH":"216","MEAN_MOTION_DDOT":"0.0000000000000","EPOCH":"2022-03-25T00:00:02.000160","TLE_LINE1":"1 52124U 22029AN  22084.00002315 -.00876256  00000-0 -51423-2 0  9999","TLE_LINE2":"2 52124  53.2173 115.4158 0001075  57.6304 330.7431 15.79860982  2165","ELEMENT_SET_NO":"999","SITE":"AFETR","APOAPSIS":"331.557","MEAN_ANOMALY":"330.7431","NORAD_CAT_ID":"52124","TIME_SYSTEM":"UTC","DECAY_DATE":null,"OBJECT_ID":"2022-029AN","MEAN_ELEMENT_THEORY":"SGP4","BSTAR":"-0.00514230000000","REF_FRAME":"TEME"},{"MEAN_MOTION_DOT":"-0.00874719","RCS_SIZE":null,"OBJECT_NAME":"STARLINK-3727","CENTER_NAME":"EARTH","SEMIMAJOR_AXIS":"6708.298","CLASSIFICATION_TYPE":"U","PERIAPSIS":"329.403","OBJECT_TYPE":"PAYLOAD","ECCENTRICITY":"0.00011320","RA_OF_ASC_NODE":"115.8296","PERIOD":"91.134","ARG_OF_PERICENTER":"62.7524","MEAN_MOTION":"15.80098948","INCLINATION":"53.2174","LAUNCH_DATE":"2022-03-19","EPHEMERIS_TYPE":"0","COUNTRY_CODE":"US","MEAN_ANOMALY":"212.5339","NORAD_CAT_ID":"52125","SITE":"AFETR","APOAPSIS":"330.922","OBJECT_ID":"2022-029AP","MEAN_ELEMENT_THEORY":"SGP4","BSTAR":"-0.00507620000000","REF_FRAME":"TEME","TIME_SYSTEM":"UTC","DECAY_DATE":null,"REV_AT_EPOCH":"167","MEAN_MOTION_DDOT":"0.0000000000000","FILE":"3373054","GP_ID":"199623601","ELEMENT_SET_NO":"999","EPOCH":"2022-03-24T22:00:00.999936","TLE_LINE1":"1 52125U 22029AP  22083.91667824 -.00874719  00000-0 -50762-2 0  9998","TLE_LINE2":"2 52125  53.2174 115.8296 0001132  62.7524 212.5339 15.80098948  1675"},{"MEAN_MOTION_DDOT":"0.0000000000000","REV_AT_EPOCH":"164","GP_ID":"199623711","FILE":"3373054","ELEMENT_SET_NO":"999","TLE_LINE1":"1 52126U 22029AQ  22083.91667824 -.00874651  00000-0 -50858-2 0  9990","TLE_LINE2":"2 52126  53.2174 115.8312 0001115  63.6069 211.0921 15.80056309  1643","EPOCH":"2022-03-24T22:00:00.999936","NORAD_CAT_ID":"52126","MEAN_ANOMALY":"211.0921","SITE":"AFETR","APOAPSIS":"331.031","REF_FRAME":"TEME","OBJECT_ID":"2022-029AQ","MEAN_ELEMENT_THEORY":"SGP4","BSTAR":"-0.00508580000000","TIME_SYSTEM":"UTC","DECAY_DATE":null,"CLASSIFICATION_TYPE":"U","PERIOD":"91.136","RA_OF_ASC_NODE":"115.8312","ECCENTRICITY":"0.00011150","OBJECT_TYPE":"PAYLOAD","PERIAPSIS":"329.535","MEAN_MOTION":"15.80056309","INCLINATION":"53.2174","ARG_OF_PERICENTER":"63.6069","EPHEMERIS_TYPE":"0","COUNTRY_CODE":"US","LAUNCH_DATE":"2022-03-19","MEAN_MOTION_DOT":"-0.00874651","RCS_SIZE":null,"OBJECT_NAME":"STARLINK-3732","SEMIMAJOR_AXIS":"6708.418","CENTER_NAME":"EARTH"},{"RCS_SIZE":null,"MEAN_MOTION_DOT":"-0.00874783","OBJECT_NAME":"STARLINK-3715","CENTER_NAME":"EARTH","SEMIMAJOR_AXIS":"6708.183","CLASSIFICATION_TYPE":"U","PERIAPSIS":"329.290","OBJECT_TYPE":"PAYLOAD","ECCENTRICITY":"0.00011290","RA_OF_ASC_NODE":"115.8283","PERIOD":"91.131","ARG_OF_PERICENTER":"61.7995","MEAN_MOTION":"15.80139566","INCLINATION":"53.2174","LAUNCH_DATE":"2022-03-19","EPHEMERIS_TYPE":"0","COUNTRY_CODE":"US","MEAN_ANOMALY":"214.0973","NORAD_CAT_ID":"52127","SITE":"AFETR","APOAPSIS":"330.805","OBJECT_ID":"2022-029AR","MEAN_ELEMENT_THEORY":"SGP4","BSTAR":"-0.00506710000000","REF_FRAME":"TEME","TIME_SYSTEM":"UTC","DECAY_DATE":null,"REV_AT_EPOCH":"164","MEAN_MOTION_DDOT":"0.0000000000000","FILE":"3373054","GP_ID":"199624262","ELEMENT_SET_NO":"999","EPOCH":"2022-03-24T22:00:00.999936","TLE_LINE1":"1 52127U 22029AR  22083.91667824 -.00874783  00000-0 -50671-2 0  9990","TLE_LINE2":"2 52127  53.2174 115.8283 0001129  61.7995 214.0973 15.80139566  1640"},{"FILE":"3372889","GP_ID":"199595031","REV_AT_EPOCH":"217","MEAN_MOTION_DDOT":"0.0000224950000","EPOCH":"2022-03-25T00:00:02.000160","TLE_LINE2":"2 52128  53.2160 115.2602 0008917 302.7046 160.5587 15.89410279  2179","TLE_LINE1":"1 52128U 22029AS  22084.00002315  .00178025  22495-4  60729-3 0  9996","ELEMENT_SET_NO":"999","SITE":"AFETR","APOAPSIS":"309.896","MEAN_ANOMALY":"160.5587","NORAD_CAT_ID":"52128","DECAY_DATE":null,"TIME_SYSTEM":"UTC","BSTAR":"0.00060729000000","MEAN_ELEMENT_THEORY":"SGP4","OBJECT_ID":"2022-029AS","REF_FRAME":"TEME","OBJECT_TYPE":"PAYLOAD","PERIAPSIS":"297.979","ECCENTRICITY":"0.00089170","PERIOD":"90.600","RA_OF_ASC_NODE":"115.2602","CLASSIFICATION_TYPE":"U","LAUNCH_DATE":"2022-03-19","COUNTRY_CODE":"US","EPHEMERIS_TYPE":"0","ARG_OF_PERICENTER":"302.7046","INCLINATION":"53.2160","MEAN_MOTION":"15.89410279","OBJECT_NAME":"STARLINK-3719","RCS_SIZE":null,"MEAN_MOTION_DOT":"0.00178025","CENTER_NAME":"EARTH","SEMIMAJOR_AXIS":"6682.072"}];
